NORAD_CAT_ID,OBJECT_NAME,OBJECT_TYPE,EPOCH,MEAN_MOTION,ECCENTRICITY,INCLINATION,RA_OF_ASC_NODE,ARG_OF_PERICENTER,MEAN_ANOMALY,BSTAR,MEAN_MOTION_DOT,MEAN_MOTION_DDOT,TLE_LINE0,TLE_LINE1,TLE_LINE2,SEMIMAJOR_AXIS,PERIOD,APOGEE,PERIGEE,DECAYED
53567.0,STARLINK-4585,PAYLOAD,2023-09-11 02:05:28,15.08839718,9.46e-05,53.2178,182.0747,75.7408,284.3689,1.5959e-05,-3.4e-07,0.0,0 STARLINK-4585,1 53567U 22101AS  23254.08713444 -.00000034  00000-0  15959-4 0  9990,2 53567  53.2178 182.0747 0000946  75.7408 284.3689 15.08839718 58972,6917.881,95.438,540.401,539.092,0.0
53567.0,STARLINK-4585,PAYLOAD,2023-09-12 01:56:15,15.08840676,0.0001412,53.2184,177.621,90.1543,269.9611,0.00013044,1.789e-05,0.0,0 STARLINK-4585,1 53567U 22101AS  23255.08073313  .00001789  00000-0  13044-3 0  9994,2 53567  53.2184 177.6210 0001412  90.1543 269.9611 15.08840676 59121,6917.878,95.438,540.72,538.767,0.0
53567.0,STARLINK-4585,PAYLOAD,2023-09-13 01:47:02,15.08845041,0.0001424,53.2185,173.1617,103.4512,256.6639,0.00010041,1.311e-05,0.0,0 STARLINK-4585,1 53567U 22101AS  23256.07433364  .00001311  00000-0  10041-3 0  9995,2 53567  53.2185 173.1617 0001424 103.4512 256.6639 15.08845041 59271,6917.865,95.437,540.715,538.745,0.0
53567.0,STARLINK-4585,PAYLOAD,2023-09-13 04:57:48,15.08847807,0.0001327,53.2181,172.5668,100.2408,259.8734,8.526e-05,1.07e-05,0.0,0 STARLINK-4585,1 53567U 22101AS  23256.20681211  .00001070  00000-0  85260-4 0  9994,2 53567  53.2181 172.5668 0001327 100.2408 259.8734 15.08847807 59292,6917.857,95.437,540.64,538.804,0.0
53567.0,STARLINK-4585,PAYLOAD,2023-09-14 03:13:12,15.08853074,0.00011,53.2178,168.3998,82.2564,277.8553,0.0001183,1.596e-05,0.0,0 STARLINK-4585,1 53567U 22101AS  23257.13416672  .00001596  00000-0  11830-3 0  9998,2 53567  53.2178 168.3998 0001100  82.2564 277.8553 15.08853074 59436,6917.84,95.437,540.466,538.944,0.0
53567.0,STARLINK-4585,PAYLOAD,2023-09-15 01:28:37,15.08839616,0.0001237,53.2171,164.2378,90.9928,269.1205,-2.1881e-05,-6.36e-06,0.0,0 STARLINK-4585,1 53567U 22101AS  23258.06154260 -.00000636  00000-0 -21881-4 0  9997,2 53567  53.2171 164.2378 0001237  90.9928 269.1205 15.08839616 59576,6917.882,95.438,540.602,538.891,0.0
53567.0,STARLINK-4585,PAYLOAD,2023-09-15 03:04:00,15.08843247,0.0001186,53.2169,163.9398,93.3836,266.7292,7.0029e-06,-1.76e-06,0.0,0 STARLINK-4585,1 53567U 22101AS  23258.12777941 -.00000176  00000-0  70029-5 0  9998,2 53567  53.2169 163.9398 0001186  93.3836 266.7292 15.08843247 59584,6917.87,95.437,540.556,538.915,0.0
53567.0,STARLINK-4585,PAYLOAD,2023-09-16 02:54:46,15.08854327,0.0001242,53.2175,159.4771,91.4887,268.6248,0.00011584,1.557e-05,0.0,0 STARLINK-4585,1 53567U 22101AS  23259.12137065  .00001557  00000-0  11584-3 0  9998,2 53567  53.2175 159.4771 0001242  91.4887 268.6248 15.08854327 59734,6917.837,95.437,540.561,538.842,0.0
53567.0,STARLINK-4585,PAYLOAD,2023-09-16 17:13:16,15.08829298,0.0001294,53.2165,156.8027,81.9742,278.1397,3.9891e-06,-2.24e-06,0.0,0 STARLINK-4585,1 53567U 22101AS  23259.71755023 -.00000224  00000-0  39891-5 0  9997,2 53567  53.2165 156.8027 0001294  81.9742 278.1397 15.08829298 59829,6917.913,95.438,540.673,538.883,0.0
53567.0,STARLINK-4585,PAYLOAD,2023-09-16 23:34:49,15.0882806,0.0001201,53.2166,155.6128,96.8599,263.2529,-5.912e-08,-2.89e-06,0.0,0 STARLINK-4585,1 53567U 22101AS  23259.98251297 -.00000289  00000-0 -59120-7 0  9991,2 53567  53.2166 155.6128 0001201  96.8599 263.2529 15.08828060 59864,6917.917,95.438,540.613,538.951,0.0
53567.0,STARLINK-4585,PAYLOAD,2023-09-17 17:04:03,15.08847372,0.000107,53.2163,152.3406,96.9867,263.1247,0.00014079,1.954e-05,0.0,0 STARLINK-4585,1 53567U 22101AS  23260.71114686  .00001954  00000-0  14079-3 0  9992,2 53567  53.2163 152.3406 0001070  96.9867 263.1247 15.08847372 59972,6917.858,95.437,540.463,538.983,0.0
53567.0,STARLINK-4585,PAYLOAD,2023-09-18 02:36:21,15.08873273,0.0001152,53.2159,150.5575,104.325,255.787,0.0013717,0.0002163,0.0,0 STARLINK-4585,1 53567U 22101AS  23261.10858434  .00021630  00000-0  13717-2 0  9992,2 53567  53.2159 150.5575 0001152 104.3250 255.7870 15.08873273 60032,6917.779,95.435,540.441,538.847,0.0
53567.0,STARLINK-4585,PAYLOAD,2023-09-18 20:05:35,15.08868519,0.0001361,53.2159,147.2875,114.8286,245.2848,0.0008946,0.00013989,0.0,0 STARLINK-4585,1 53567U 22101AS  23261.83722070  .00013989  00000-0  89460-3 0  9995,2 53567  53.2159 147.2875 0001361 114.8286 245.2848 15.08868519 60143,6917.793,95.436,540.6,538.717,0.0
53567.0,STARLINK-4585,PAYLOAD,2023-09-18 23:16:21,15.08849599,9.88e-05,53.2158,146.693,91.0124,269.0981,0.00098859,0.00015485,0.0,0 STARLINK-4585,1 53567U 22101AS  23261.96969806  .00015485  00000-0  98859-3 0  9994,2 53567  53.2158 146.6930 0000988  91.0124 269.0981 15.08849599 60169,6917.851,95.437,540.4,539.033,0.0
53567.0,STARLINK-4585,PAYLOAD,2023-09-19 23:07:08,15.08872049,9.64e-05,53.2151,142.2312,74.9439,285.166,0.0011566,0.00018183,0.0,0 STARLINK-4585,1 53567U 22101AS  23262.96329200  .00018183  00000-0  11566-2 0  9990,2 53567  53.2151 142.2312 0000964  74.9439 285.1660 15.08872049 60317,6917.782,95.436,540.314,538.981,0.0
53567.0,STARLINK-4585,PAYLOAD,2023-09-20 08:39:27,15.08860888,0.0001134,53.2156,140.4473,76.6064,283.5054,0.00056058,8.65e-05,0.0,0 STARLINK-4585,1 53567U 22101AS  23263.36073104  .00008650  00000-0  56058-3 0  9998,2 53567  53.2156 140.4473 0001134  76.6064 283.5054 15.08860888 60376,6917.817,95.436,540.466,538.897,0.0
53567.0,STARLINK-4585,PAYLOAD,2023-09-20 21:22:33,15.08816708,0.0001445,53.2165,138.0711,100.2588,259.8567,-0.00049903,-8.216e-05,0.0,0 STARLINK-4585,1 53567U 22101AS  23263.89066390 -.00008216  00000-0 -49903-3 0  9996,2 53567  53.2165 138.0711 0001445 100.2588 259.8567 15.08816708 60450,6917.952,95.439,540.816,538.817,0.0
53567.0,STARLINK-4585,PAYLOAD,2023-09-20 22:57:56,15.08814773,0.0001392,53.2164,137.7733,103.5022,256.6125,-0.00014184,-2.543e-05,0.0,0 STARLINK-4585,1 53567U 22101AS  23263.95690607 -.00002543  00000-0 -14184-3 0  9997,2 53567  53.2164 137.7733 0001392 103.5022 256.6125 15.08814773 60465,6917.957,95.439,540.785,538.86,0.0
53567.0,STARLINK-4585,PAYLOAD,2023-09-21 18:02:35,15.08834608,0.0001279,53.2158,134.2036,90.9331,269.1808,0.0011231,0.00017629,0.0,0 STARLINK-4585,1 53567U 22101AS  23264.75179825  .00017629  00000-0  11231-2 0  9998,2 53567  53.2158 134.2036 0001279  90.9331 269.1808 15.08834608 60581,6917.897,95.438,540.647,538.877,0.0
53567.0,STARLINK-4585,PAYLOAD,2023-09-21 21:13:21,15.08843103,0.0001214,53.2153,133.609,89.8044,270.3087,0.0013749,0.00021663,0.0,0 STARLINK-4585,1 53567U 22101AS  23264.88427783  .00021663  00000-0  13749-2 0  9990,2 53567  53.2153 133.6090 0001214  89.8044 270.3087 15.08843103 60602,6917.871,95.437,540.576,538.896,0.0
53567.0,STARLINK-4585,PAYLOAD,2023-09-22 00:24:07,15.08849277,0.0001216,53.2154,133.0139,89.8312,270.282,0.001445,0.0002279,0.0,0 STARLINK-4585,1 53567U 22101AS  23265.01675720  .00022790  00000-0  14450-2 0  9994,2 53567  53.2154 133.0139 0001216  89.8312 270.2820 15.08849277 60625,6917.852,95.437,540.558,538.876,0.0
53567.0,STARLINK-4585,PAYLOAD,2023-09-22 21:04:07,15.08864973,0.0001168,53.2149,129.148,94.0421,266.0705,0.0011198,0.00017591,0.0,0 STARLINK-4585,1 53567U 22101AS  23265.87786956  .00017591  00000-0  11198-2 0  9991,2 53567  53.2149 129.1480 0001168  94.0421 266.0705 15.08864973 60758,6917.804,95.436,540.477,538.861,0.0
53567.0,STARLINK-4585,PAYLOAD,2023-09-23 00:14:53,15.08872178,0.0001174,53.2151,128.5525,94.0039,266.1088,0.0010739,0.00016859,0.0,0 STARLINK-4585,1 53567U 22101AS  23266.01034645  .00016859  00000-0  10739-2 0  9995,2 53567  53.2151 128.5525 0001174  94.0039 266.1088 15.08872178 60779,6917.782,95.436,540.459,538.835,0.0
53567.0,STARLINK-4585,PAYLOAD,2023-09-23 20:54:54,15.08848942,0.0001318,53.2153,124.6867,90.4359,269.6785,0.00041043,6.252e-05,0.0,0 STARLINK-4585,1 53567U 22101AS  23266.87146879  .00006252  00000-0  41043-3 0  9991,2 53567  53.2153 124.6867 0001318  90.4359 269.6785 15.08848942 60901,6917.853,95.437,540.63,538.806,0.0
53567.0,STARLINK-4585,PAYLOAD,2023-09-24 14:24:09,15.08842635,0.0001729,53.2157,121.4155,101.9026,258.216,0.00076975,0.00011985,0.0,0 STARLINK-4585,1 53567U 22101AS  23267.60011244  .00011985  00000-0  76975-3 0  9991,2 53567  53.2157 121.4155 0001729 101.9026 258.2160 15.08842635 61012,6917.872,95.437,540.933,538.541,0.0
53567.0,STARLINK-4585,PAYLOAD,2023-09-24 19:10:19,15.08843401,0.0001507,53.2154,120.5223,99.5036,260.6127,0.00033419,5.035e-05,0.0,0 STARLINK-4585,1 53567U 22101AS  23267.79883116  .00005035  00000-0  33419-3 0  9991,2 53567  53.2154 120.5223 0001507  99.5036 260.6127 15.08843401 61047,6917.87,95.437,540.778,538.692,0.0
53567.0,STARLINK-4585,PAYLOAD,2023-09-24 20:45:42,15.08844499,0.00014,53.2155,120.2267,90.998,269.1172,0.000201,2.913e-05,0.0,0 STARLINK-4585,1 53567U 22101AS  23267.86507079  .00002913  00000-0  20100-3 0  9995,2 53567  53.2155 120.2267 0001400  90.9980 269.1172 15.08844499 61051,6917.867,95.437,540.7,538.763,0.0
53567.0,STARLINK-4585,PAYLOAD,2023-09-24 23:56:28,15.0884927,0.0001351,53.2156,119.6315,91.0459,269.0688,0.0002102,3.06e-05,0.0,0 STARLINK-4585,1 53567U 22101AS  23267.99754870  .00003060  00000-0  21020-3 0  9998,2 53567  53.2156 119.6315 0001351  91.0459 269.0688 15.08849270 61071,6917.852,95.437,540.652,538.782,0.0
53567.0,STARLINK-4585,PAYLOAD,2023-09-25 20:36:28,15.08853723,0.0001444,53.2154,115.7659,92.6466,267.4692,0.00038786,5.893e-05,0.0,0 STARLINK-4585,1 53567U 22101AS  23268.85866683  .00005893  00000-0  38786-3 0  9993,2 53567  53.2154 115.7659 0001444  92.6466 267.4692 15.08853723 61205,6917.838,95.437,540.702,538.705,0.0
53567.0,STARLINK-4585,PAYLOAD,2023-09-25 23:47:14,15.08856307,0.0001447,53.2155,115.1706,93.9683,266.1474,0.00041231,6.283e-05,0.0,0 STARLINK-4585,1 53567U 22101AS  23268.99114498  .00006283  00000-0  41231-3 0  9991,2 53567  53.2155 115.1706 0001447  93.9683 266.1474 15.08856307 61228,6917.831,95.437,540.697,538.695,0.0
